{
    "links": {
        "self": "http://www.neowsapp.com/rest/v1/neo/3511828?api_key=iIulBulltgU6a56xZRHN4H3l9WmuAYTsLGpBGhQ2"
    },
    "id": "3511828",
    "neo_reference_id": "3511828",
    "name": "(2010 EC43)",
    "designation": "2010 EC43",
    "nasa_jpl_url": "http://ssd.jpl.nasa.gov/sbdb.cgi?sstr=3511828",
    "absolute_magnitude_h": 23.0,
    "estimated_diameter": {
        "kilometers": {
            "estimated_diameter_min": 0.0667659413,
            "estimated_diameter_max": 0.1492931834
        },
        "meters": {
            "estimated_diameter_min": 66.7659413495,
            "estimated_diameter_max": 149.2931834393
        },
        "miles": {
            "estimated_diameter_min": 0.0414864197,
            "estimated_diameter_max": 0.0927664547
        },
        "feet": {
            "estimated_diameter_min": 219.0483710172,
            "estimated_diameter_max": 489.807047955
        }
    },
    "is_potentially_hazardous_asteroid": false,
    "close_approach_data": [
        {
            "close_approach_date": "2010-01-02",
            "close_approach_date_full": "2010-Jan-02 18:05",
            "epoch_date_close_approach": 1262455500000,
            "relative_velocity": {
                "kilometers_per_second": "14.8923726577",
                "kilometers_per_hour": "53612.5415677132",
                "miles_per_hour": "33312.7483980049"
            },
            "miss_distance": {
                "astronomical": "0.0763701704",
                "lunar": "29.7079962856",
                "kilometers": "11424814.823377048",
                "miles": "7099050.7438893424"
            },
            "orbiting_body": "Mars"
        },
        {
            "close_approach_date": "2010-04-18",
            "close_approach_date_full": "2010-Apr-18 01:27",
            "epoch_date_close_approach": 1271554020000,
            "relative_velocity": {
                "kilometers_per_second": "8.8373694126",
                "kilometers_per_hour": "31814.52988542",
                "miles_per_hour": "19768.3116390822"
            },
            "miss_distance": {
                "astronomical": "0.0428362971",
                "lunar": "16.6633195719",
                "kilometers": "6408218.804847177",
                "miles": "3981882.5229859626"
            },
            "orbiting_body": "Earth"
        }
    ],
    "orbital_data": {
        "orbit_id": "11",
        "orbit_determination_date": "2017-04-06 08:58:12",
        "first_observation_date": "2010-03-13",
        "last_observation_date": "2010-04-07",
        "data_arc_in_days": 25,
        "observations_used": 35,
        "orbit_uncertainty": "8",
        "minimum_orbit_intersection": ".00477493",
        "jupiter_tisserand_invariant": "3.229",
        "epoch_osculation": "2455272.5",
        "eccentricity": ".6043251401661014",
        "semi_major_axis": "2.431533955714494",
        "inclination": ".78158796326827",
        "ascending_node_longitude": "344.2809361280125",
        "orbital_period": "1384.901657345929",
        "perihelion_distance": ".9620968571086975",
        "perihelion_argument": "225.6184020280848",
        "aphelion_distance": "3.900971054320291",
        "perihelion_time": "2455306.371228410330",
        "mean_anomaly": "351.1953010070859",
        "mean_motion": ".2599462554546406",
        "equinox": "J2000",
        "orbit_class": {
            "orbit_class_type": "APO",
            "orbit_class_description": "Near-Earth asteroid orbits which cross the Earth’s orbit similar to that of 1862 Apollo",
            "orbit_class_range": "a (semi-major axis) > 1.0 AU; q (perihelion) < 1.017 AU"
        }
    },
    "is_sentry_object": false
}